Name,Address,Latitude,Longitude,InspectionDate,ViolationDescription,Grade
123 Nikko,1280 Amsterdam Avenue NYC 10027,40.8115585,-73.9578092,4/9/15,Wiping cloths soiled or not stored in sanitizing solution.,C
Acqua Restaurant,2123 Peck Slip NYC 10038,40.707719,-74.0017499,11/2/15,Personal cleanliness inadequate. Outer garment soiled with possible contaminant. Effective hair restraint not worn in an area where food is prepared.,C
Agoda Asian Cuisine,8 Murray St NYC 10007,40.7131716,-74.0076858,6/17/15,Personal cleanliness inadequate. Outer garment soiled with possible contaminant. Effective hair restraint not worn in an area where food is prepared.,C
Ajisen Ramen,14 Mott Street NYC 10013,40.71418765,-73.99850371,4/21/15,Hot food item not held at or above 140 degrees F.,C
Akbar Palace,47 W 55th St NYC 10019,40.76268775,-73.97674035,7/6/15,"Non-food contact surface improperly constructed. Unacceptable material used. Non-food contact surface or equipment improperly maintained and/or not properly sealed, raised, spaced or movable to allow accessibility for cleaning on all sides, above and underneath the unit.",C
Aleef Coffee House,333 West 39th Street NYC 10018,40.7561691,-73.99257409,11/23/15,"Food contact surface not properly washed, rinsed and sanitized after each use and following any activity when contamination may have occurred.",C
Amaze,401 East 58th Street NYC 10022,40.7589687,-73.9621451,2/10/15,"Filth flies or food/refuse/sewage-associated (FRSA) flies present in facilitys food and/or non-food areas. Filth flies include house flies, little house flies, blow flies, bottle flies and flesh flies. Food/refuse/sewage-associated flies include fruit flies, drain flies and Phorid flies.",C
Amazing 66 Restaurant,66 Mott Street NYC 10013,40.7161112,-73.9980554,3/19/15,Cold food item held above 41 degrees F (smoked fish and reduced oxygen packaged foods above 38 degrees F) except during necessary preparation.,C
Amici 36,519 8th Ave NYC 10018,40.7533389,-73.9928586,9/17/15,Cold food item held above 41 degrees F (smoked fish and reduced oxygen packaged foods above 38 degrees F) except during necessary preparation.,C
Angel Candy Store,634 West 207th Street NYC 10034,40.868253,-73.92169117,7/7/15,Facility not vermin proof. Harborage or conditions conducive to attracting vermin to the premises and/or allowing vermin to exist.,C
Angora,539 9th Ave NYC 10018,40.7571191,-73.9938011,3/19/15,"Toilet facility not maintained and provided with toilet paper, waste receptacle and self-closing door.",C
Antojitos Retaurant,125A Nagle Ave NYC 10040,40.859345,-73.9311269,3/13/15,Evidence of mice or live mice present in facility's food and/or non-food areas.,C
Arbor Bistro,226 West Houston Street NYC 10014,40.72870565,-74.00485515,4/6/15,"Food contact surface not properly washed, rinsed and sanitized after each use and following any activity when contamination may have occurred.",C
Arco Cafe,886 Amsterdam Ave NYC 10025,40.7987331,-73.9672188,6/11/15,"Filth flies or food/refuse/sewage-associated (FRSA) flies present in facilitys food and/or non-food areas. Filth flies include house flies, little house flies, blow flies, bottle flies and flesh flies. Food/refuse/sewage-associated flies include fruit flies, drain flies and Phorid flies.",C
Ariyoshi Japanese Restaurant,226 East 53rd Street NYC 10022,40.7570643,-73.96840918,2/9/15,Evidence of mice or live mice present in facility's food and/or non-food areas.,C
Arome Cafe 32,138 West 32Nd Street NYC 10001,40.74891706,-73.98990259,7/22/15,Facility not vermin proof. Harborage or conditions conducive to attracting vermin to the premises and/or allowing vermin to exist.,C
Asia Kan,710 Amsterdam Avenue NYC 10025,40.7931896,-73.9713553,2/25/15,"Non-food contact surface improperly constructed. Unacceptable material used. Non-food contact surface or equipment improperly maintained and/or not properly sealed, raised, spaced or movable to allow accessibility for cleaning on all sides, above and underneath the unit.",C
A-Wah Restaurant,5 Catherine Street NYC 10038,40.713791,-73.9973074,2/10/15,Live roaches present in facility's food and/or non-food areas.,C
Bangal Curry,27 Park Place NYC 10007,40.7132844,-74.0089762,12/28/15,Food Protection Certificate not held by supervisor of food operations.,C
Bassanova Ramen,76 Mott St NYC 10013,40.71641765,-73.9978159,3/2/15,Plumbing not properly installed or maintained; anti-siphonage or backflow prevention device not provided where required; equipment or floor not properly drained; sewage disposal system in disrepair or not functioning properly.,C
Bedford Falls,206 East 67th Street NYC 10065,40.76611235,-73.96254188,4/2/15,"Tobacco use, eating, or drinking from open container in food preparation, food storage or dishwashing area observed.",C
Belgium Beer Cafe,220 5th Ave NYC 10001,40.7437371,-73.98845584,5/4/15,Food prepared from ingredients at ambient temperature not cooled to 41 degrees F or below within 4 hours.,C
Benito One,174 Mulberry Street NYC 10013,40.7199657,-73.99680406,2/13/15,Evidence of mice or live mice present in facility's food and/or non-food areas.,C
Benton Cafe,123 William St NYC 10038,40.7093246,-74.00713895,9/25/15,Live roaches present in facility's food and/or non-food areas.,C
Between The Bread,145 West 55th Street NYC 10019,40.76403475,-73.97993041,5/15/15,Evidence of mice or live mice present in facility's food and/or non-food areas.,C
Big Wong Restaurant,67 Mott St NYC 10013,40.71624875,-73.99844792,7/30/15,Cold food item held above 41 degrees F (smoked fish and reduced oxygen packaged foods above 38 degrees F) except during necessary preparation.,C
Black Tree,131 Orchard St NYC 10002,40.719721,-73.9895212,7/22/15,"Filth flies or food/refuse/sewage-associated (FRSA) flies present in facility's food and/or non-food areas. Filth flies include house flies, little house flies, blow flies, bottle flies and flesh flies. Food/refuse/sewage-associated flies include fruit flies, drain flies and Phorid flies.",C
Bleecker Kitchen & Co,643 Broadway NYC 10012,40.7267174,-73.9958816,6/23/15,Proper sanitization not provided for utensil ware washing operation.,C
Blossom,187 9th Avenue NYC 10011,40.7455163,-74.00237271,3/13/15,Facility not vermin proof. Harborage or conditions conducive to attracting vermin to the premises and/or allowing vermin to exist.,C
Blue Dog Cafe,155 W 56th St NYC 10019,40.764679,-73.9797209,6/4/15,Evidence of mice or live mice present in facility's food and/or non-food areas.,C
Bouley Botanical,35 White St NYC 10013,40.718678,-74.0046486,9/11/15,"No facilities available to wash, rinse and sanitize utensils and/or equipment.",C
Braai,329 West 51St Street NYC 10019,40.76365,-73.98677318,6/12/15,Proper sanitization not provided for utensil ware washing operation.,C
Break Room,83 Baxter St NYC 10013,40.7166236,-73.999774,4/27/15,Food Protection Certificate not held by supervisor of food operations.,C
Bricco Restaurant,304 West 56th Street NYC 10019,40.7660484,-73.9840285,3/11/15,"Food not protected from potential source of contamination during storage, preparation, transportation, display or service.",C
Brookdale,455 North End Avenue NYC 10282,40.7175679,-74.01443858,8/10/15,Live roaches present in facility's food and/or non-food areas.,C
Buttercup Bake Shop,167 Madison Ave NYC 10016,40.7469336,-73.9833733,8/17/15,Facility not vermin proof. Harborage or conditions conducive to attracting vermin to the premises and/or allowing vermin to exist.,C
Cabrini 181,854 West 181st Street NYC 10033,40.85125464,-73.94097664,3/12/15,Hand washing facility not provided in or near food preparation area and toilet room. Hot and cold running water at adequate pressure to enable cleanliness of employees not provided at facility. Soap and an acceptable hand-drying device not provided.,C
Cafe El Portal,174 Elizabeth St NYC 10012,40.72100015,-73.9946585,4/22/15,Cold food item held above 41 degrees F (smoked fish and reduced oxygen packaged foods above 38 degrees F) except during necessary preparation.,C
Cafe Europa,545 5th Avenue NYC 10017,40.7551236,-73.9794545,5/19/15,"Non-food contact surface improperly constructed. Unacceptable material used. Non-food contact surface or equipment improperly maintained and/or not properly sealed, raised, spaced or movable to allow accessibility for cleaning on all sides, above and underneath the unit.",C
Cafe Exchange,49 Broadway NYC 10006,40.7066051,-74.0128243,12/7/15,Cold food item held above 41 degrees F (smoked fish and reduced oxygen packaged foods above 38 degrees F) except during necessary preparation.,C
Cafe Prague,2 West 19th Street NYC 10011,40.739076,-73.99157,12/1/15,Cold food item held above 41 degrees F (smoked fish and reduced oxygen packaged foods above 38 degrees F) except during necessary preparation.,C
Caffe Bacio,1223 3rd Avenue NYC 10021,40.76877567,-73.96118633,3/17/15,Wiping cloths soiled or not stored in sanitizing solution.,C
Capizzi,547 9th Avenue NYC 10018,40.75748565,-73.99366485,10/2/15,Cold food item held above 41 degrees F (smoked fish and reduced oxygen packaged foods above 38 degrees F) except during necessary preparation.,C
Carval Pizzeria,1544 Madison Ave NYC 10029,40.79273455,-73.95041875,7/27/15,"Filth flies or food/refuse/sewage-associated (FRSA) flies present in facility's food and/or non-food areas. Filth flies include house flies, little house flies, blow flies, bottle flies and flesh flies. Food/refuse/sewage-associated flies include fruit flies, drain flies and Phorid flies.",C
Cascabel Taqueria,2799 Broadway NYC 10025,40.8029449,-73.9679801,1/8/16,"Food not protected from potential source of contamination during storage, preparation, transportation, display or service.",C
Casimir & Co,1022 Lexington Ave NYC 10021,40.771038,-73.961883,4/7/15,Hot food item not held at or above 140 degrees F.,C
China Taste,1570 2nd Avenue NYC 10028,40.7748928,-73.95357892,5/28/15,"Filth flies or food/refuse/sewage-associated (FRSA) flies present in facility's food and/or non-food areas. Filth flies include house flies, little house flies, blow flies, bottle flies and flesh flies. Food/refuse/sewage-associated flies include fruit flies, drain flies and Phorid flies.",C
Chipotle Mexican Grill,1221 6th Avenue NYC 10020,40.7595444,-73.98253315,7/28/15,"Filth flies or food/refuse/sewage-associated (FRSA) flies present in facility's food and/or non-food areas. Filth flies include house flies, little house flies, blow flies, bottle flies and flesh flies. Food/refuse/sewage-associated flies include fruit flies, drain flies and Phorid flies.",C
Ciao Lavazza Cafe,99 Nassau Street NYC 10038,40.709146,-74.009137,10/23/15,"Raw, cooked or prepared food is adulterated, contaminated, cross-contaminated, or not discarded in accordance with HACCP plan.",C
Cipriani,55 Wall Street NYC 10005,40.7061385,-74.0093921,4/27/15,"Non-food contact surface improperly constructed. Unacceptable material used. Non-food contact surface or equipment improperly maintained and/or not properly sealed, raised, spaced or movable to allow accessibility for cleaning on all sides, above and underneath the unit.",C
Corbet And Conley,188 3rd Avenue NYC 10003,40.7353705,-73.9858836,2/19/15,Food Protection Certificate not held by supervisor of food operations.,C
Corso Coffee,537 W 27th St NYC 10001,40.7511512,-74.00407035,12/14/15,Facility not vermin proof. Harborage or conditions conducive to attracting vermin to the premises and/or allowing vermin to exist.,C
Crepes N' Salads,27 Saint James Pl NYC 10038,40.7119715,-73.9993323,4/15/15,Facility not vermin proof. Harborage or conditions conducive to attracting vermin to the premises and/or allowing vermin to exist.,C
Crumbs Bake Shop,124 University Pl NYC 10003,40.7348363,-73.9922133,11/19/15,Live roaches present in facility's food and/or non-food areas.,C
Dag'S The Patio,342 E 47th St NYC 10017,40.752487,-73.9689335,10/14/15,Facility not vermin proof. Harborage or conditions conducive to attracting vermin to the premises and/or allowing vermin to exist.,C
Delis 48,48 W 48th Street NYC 10036,40.75798905,-73.98038839,9/30/15,Food Protection Certificate not held by supervisor of food operations.,C
Desmond'S Tavern,433 Park Avenue South NYC 10016,40.7441367,-73.98306555,10/14/15,"No facilities available to wash, rinse and sanitize utensils and/or equipment.",C
Dishes,6 East 45th Street NYC 10017,40.75491155,-73.97891085,5/28/15,"Food not protected from potential source of contamination during storage, preparation, transportation, display or service.",C
Dojo Restaurant,10 West 4th Street NYC 10012,40.728586,-73.994805,7/7/15,Cold food item held above 41 degrees  F (smoked fish and reduced oxygen packaged foods above 38 degrees F) except during necessary preparation.,C
Donut Pub,203 West 14th Street NYC 10011,40.7388452,-73.9998142,5/18/15,Evidence of mice or live mice present in facility's food and/or non-food areas.,C
El Anafe Express,584 W 207th St NYC 10034,40.8669717,-73.9209464,3/19/15,Hot food item not held at or above 140 degrees F.,C
El Cantinero,86 University Place NYC 10003,40.73368435,-73.99334998,1/26/15,Evidence of mice or live mice present in facility's food and/or non-food areas.,C
El Ranchito Del Agave,476 9th Avenue NYC 10018,40.7549345,-73.9949238,10/14/15,"Food not protected from potential source of contamination during storage, preparation, transportation, display or service.",C
Empire Diner,210 10th Ave NYC 10011,40.7471818,-74.0043049,7/7/15,"Non-food contact surface improperly constructed. Unacceptable material used. Non-food contact surface or equipment improperly maintained and/or not properly sealed, raised, spaced or movable to allow accessibility for cleaning on all sides, above and underneath the unit.",C
Esperanto Restaurant Bar And Jugo,145 Avenue C NYC 10009,40.725436,-73.977991,7/2/15,"Filth flies or food/refuse/sewage-associated (FRSA) flies present in facilitys food and/or non-food areas. Filth flies include house flies, little house flies, blow flies, bottle flies and flesh flies. Food/refuse/sewage-associated flies include fruit flies, drain flies and Phorid flies.",C
Everyday Gourmet Deli,369 Lexington Avenue NYC 10017,40.7503856,-73.9766426,7/27/15,Hand washing facility not provided in or near food preparation area and toilet room. Hot and cold running water at adequate pressure to enable cleanliness of employees not provided at facility. Soap and an acceptable hand-drying device not provided.,C
Five Mile Stone,1640 2nd Ave NYC 10028,40.7772506,-73.9519837,3/19/15,Plumbing not properly installed or maintained; anti-siphonage or backflow prevention device not provided where required; equipment or floor not properly drained; sewage disposal system in disrepair or not functioning properly.,C
Fork & Spoon,7 West 36th Street NYC 10018,40.7502124,-73.98429669,11/9/15,Personal cleanliness inadequate. Outer garment soiled with possible contaminant. Effective hair restraint not worn in an area where food is prepared.,C
Fuji Japanese Restaurant,238 West 56th Street NYC 10019,40.7655783,-73.98282844,7/8/15,"Sanitized equipment or utensil, including in-use food dispensing utensil, improperly used or stored.",C
Galli Restaurant,45 Mercer Street NYC 10013,40.72167865,-74.00141265,6/26/15,"Food contact surface not properly washed, rinsed and sanitized after each use and following any activity when contamination may have occurred.",C
Giovanni'S Italian Pizzeria,1011 Columbus Ave NYC 10025,40.8014846,-73.9609763,3/2/15,"Raw, cooked or prepared food is adulterated, contaminated, cross-contaminated, or not discarded in accordance with HACCP plan.",C
Go Go Curry,12 John Street NYC 10038,40.7098102,-74.00908057,5/20/15,Evidence of mice or live mice present in facility's food and/or non-food areas.,C
Good Enough To Eat (A.G. Bistro),520 Columbus Avenue NYC 10024,40.7859964,-73.972771,9/10/15,Cold food item held above 41 degrees F (smoked fish and reduced oxygen packaged foods above 38 degrees F) except during necessary preparation.,C
Goodfella'S Brick Oven Pizza,144 Orchard Street NYC 10002,40.7204343,-73.9889386,9/11/15,"Non-food contact surface improperly constructed. Unacceptable material used. Non-food contact surface or equipment improperly maintained and/or not properly sealed, raised, spaced or movable to allow accessibility for cleaning on all sides, above and underneath the unit.",C
Grand Sichuan,229 9th Ave NYC 10001,40.747358,-74.0009202,8/31/15,"Filth flies or food/refuse/sewage-associated (FRSA) flies present in facility's food and/or non-food areas. Filth flies include house flies, little house flies, blow flies, bottle flies and flesh flies. Food/refuse/sewage-associated flies include fruit flies, drain flies and Phorid flies.",C
Grand Sichuan 75 St.,307 Amsterdam Ave NYC 10023,40.7800809,-73.98022831,10/28/15,Evidence of mice or live mice present in facility's food and/or non-food areas.,C
Guy'S American Kitchen & Bar,220 West 44th Street NYC 10036,40.75765882,-73.98699536,2/17/15,"Non-food contact surface improperly constructed. Unacceptable material used. Non-food contact surface or equipment improperly maintained and/or not properly sealed, raised, spaced or movable to allow accessibility for cleaning on all sides, above and underneath the unit.",C
"Hampton Inn, United Nations",231 E 43rd St NYC 10017,40.7509857,-73.97216202,1/30/15,Personal cleanliness inadequate. Outer garment soiled with possible contaminant. Effective hair restraint not worn in an area where food is prepared.,C
Harlem Food Court,66 W 116th St NYC 10026,40.80158795,-73.94932238,8/27/15,"Food not cooled by an approved method whereby the internal product temperature is reduced from 140 degrees  F to 70 degrees  F or less within 2 hours, and from 70 degrees  F to 41 degrees F or less within 4 additional hours.",C
Harlem On Fifth,2150 5th Avenue NYC 10037,40.81066455,-73.93946842,4/8/15,Facility not vermin proof. Harborage or conditions conducive to attracting vermin to the premises and/or allowing vermin to exist.,C
Hestia Marketplace,513 7th Ave NYC 10018,40.7532535,-73.9887536,2/26/15,Facility not vermin proof. Harborage or conditions conducive to attracting vermin to the premises and/or allowing vermin to exist.,C
Hop Won Express,139 E 45th St NYC 10017,40.75331505,-73.97390931,1/13/15,Live roaches present in facility's food and/or non-food areas.,C
Hot Clay Oven,708 3rd Ave NYC 10017,40.7523304,-73.9735284,2/25/15,Food Protection Certificate not held by supervisor of food operations.,C
Hunter College Faculty Dining,695 Park Avenue NYC 10065,40.76893011,-73.96528822,6/16/15,"Non-food contact surface improperly constructed. Unacceptable material used. Non-food contact surface or equipment improperly maintained and/or not properly sealed, raised, spaced or movable to allow accessibility for cleaning on all sides, above and underneath the unit.",C
Ichi Umi,6 East 32nd Street NYC 10016,40.7467776,-73.9848138,4/2/15,"Toilet facility not maintained and provided with toilet paper, waste receptacle and self-closing door.",C
Il Valentino Osteria,1078 1st Avenue NYC 10022,40.75933033,-73.96205267,4/8/15,Wiping cloths soiled or not stored in sanitizing solution.,C
Jebon,15 St Marks Place NYC 10003,40.7293347,-73.98885276,8/26/15,"No facilities available to wash, rinse and sanitize utensils and/or equipment.",C
Jg Melon Restaurant,1291 3rd Avenue NYC 10021,40.7710892,-73.959404,9/28/15,"Food not protected from potential source of contamination during storage, preparation, transportation, display or service.",C
J J Noodle,19 Henry Street  NYC 10002,40.7129106,-73.9969013,4/2/15,Cold food item held above 41 degrees  F (smoked fish and reduced oxygen packaged foods above 38 degrees F) except during necessary preparation.,C
John'S Pizza,260 West 44th Street NYC 10036,40.7582345,-73.9884016,6/24/15,Cold food item held above 41 degrees F (smoked fish and reduced oxygen packaged foods above 38 degrees F) except during necessary preparation.,C
Joseph Leonard,170 Waverly Place NYC 10014,40.7335936,-74.0016501,10/13/15,Personal cleanliness inadequate. Outer garment soiled with possible contaminant. Effective hair restraint not worn in an area where food is prepared.,C
Jou Jou Cafe (Presbyterian Hospital),3959 Broadway NYC 10032,40.8396416,-73.9412089,5/28/15,"Raw, cooked or prepared food is adulterated, contaminated, cross-contaminated, or not discarded in accordance with HACCP plan.",C
Joy Burger Bar,1567 Lexington Ave NYC 10029,40.7885062,-73.9488409,4/2/15,Food worker does not use proper utensil to eliminate bare hand contact with food that will not receive adequate additional heat treatment.,C
Jr Primos Ii Restaurant,4986 Broadway  NYC 10034,40.868131,-73.9190614,3/17/15,"Food contact surface not properly washed, rinsed and sanitized after each use and following any activity when contamination may have occurred.",C
Kabab Bites,369 Broome St NYC 10013,40.71987925,-73.99598964,3/25/15,"Food not protected from potential source of contamination during storage, preparation, transportation, display or service.",C
Karaoke Nemo / Trece,54 East 13th Street NYC 10003,40.734071,-73.99172171,9/25/15,Pesticide use not in accordance with label or applicable laws. Prohibited chemical used/stored. Open bait station used.,C
Keko Cafe,121 Madison Avenue NYC 10016,40.7453718,-73.9845291,4/23/15,Cold food item held above 41 degrees F (smoked fish and reduced oxygen packaged foods above 38 degrees F) except during necessary preparation.,C
Ken'S Asian Taste,40 Bowery NYC 10013,40.7155618,-73.9969327,12/22/15,Evidence of mice or live mice present in facility's food and/or non-food areas.,C
Kikoo Sushi,141 1st Ave NYC 10003,40.72809545,-73.98530731,6/3/15,Plumbing not properly installed or maintained; anti-siphonage or backflow prevention device not provided where required; equipment or floor not properly drained; sewage disposal system in disrepair or not functioning properly.,C
Kori Tribeca,253 Church St NYC 10013,40.717874,-74.00532458,9/30/15,"Food not protected from potential source of contamination during storage, preparation, transportation, display or service.",C
La Bala Fish Market,3668 Broadway NYC 10031,40.83043295,-73.94712265,9/21/15,"Filth flies or food/refuse/sewage-associated (FRSA) flies present in facilitys food and/or non-food areas. Filth flies include house flies, little house flies, blow flies, bottle flies and flesh flies. Food/refuse/sewage-associated flies include fruit flies, drain flies and Phorid flies.",C
La Caridad Restaurant,2092 Amsterdam Avenue NYC 10032,40.837045,-73.93936013,8/24/15,Hand washing facility not provided in or near food preparation area and toilet room. Hot and cold running water at adequate pressure to enable cleanliness of employees not provided at facility. Soap and an acceptable hand-drying device not provided.,C
La Isla Cafe Restaurant,212 Delancey Street NYC 10002,40.7172653,-73.9832112,7/29/15,Facility not vermin proof. Harborage or conditions conducive to attracting vermin to the premises and/or allowing vermin to exist.,C
La Toulousaine Boulangerie Patisserie Cafe,942 Amsterdam Avenue NYC 10025,40.8008545,-73.9656396,1/20/16,"Food not protected from potential source of contamination during storage, preparation, transportation, display or service.",C
La Vie En Szechuan Restaurant,14 East 33rd Street NYC 10016,40.7473377,-73.9842929,6/22/15,Food Protection Certificate not held by supervisor of food operations.,C
La Villagio Restaurante Italiano,93 Macdougal Street NYC 10012,40.72937164,-74.00114709,11/5/15,Plumbing not properly installed or maintained; anti-siphonage or backflow prevention device not provided where required; equipment or floor not properly drained; sewage disposal system in disrepair or not functioning properly.,C
Le Bon Choix,652 10th Ave NYC 10036,40.7620108,-73.9935127,10/13/15,"Tobacco use, eating, or drinking from open container in food preparation, food storage or dishwashing area observed.",C
Legend,127 W 72Nd St NYC 10023,40.77807265,-73.9796116,6/29/15,"Non-food contact surface improperly constructed. Unacceptable material used. Non-food contact surface or equipment improperly maintained and/or not properly sealed, raised, spaced or movable to allow accessibility for cleaning on all sides, above and underneath the unit.",C
Legend Bar & Restaurant,88 7th Avenue NYC 10011,40.739558,-73.9991822,10/13/15,Hot food item not held at or above 140 degrees  F.,C
Lenny'S Bagels,2601 Broadway  NYC 10025,40.796111,-73.970854,7/31/15,"Non-food contact surface improperly constructed. Unacceptable material used. Non-food contact surface or equipment improperly maintained and/or not properly sealed, raised, spaced or movable to allow accessibility for cleaning on all sides, above and underneath the unit.",C
Lincoln Park Grill,867 9th Avenue NYC 10019,40.76754367,-73.98611033,6/24/15,Evidence of mice or live mice present in facility's food and/or non-food areas.,C
Little Italy Pizza/Papaya Dog,2 East 33rd Street NYC 10016,40.744005,-73.975775,11/23/15,Evidence of mice or live mice present in facility's food and/or non-food areas.,C
Luzzo'S La Mtp,52 Gansevoort St NYC 10014,40.73920425,-74.00695926,10/15/15,Hot food item not held at or above 140 degrees  F.,C
Madangsui,35 West 35Th Street NYC 10001,40.7498968,-73.9856418,4/13/15,Cold food item held above 41 degrees  F (smoked fish and reduced oxygen packaged foods above 38 degrees F) except during necessary preparation.,C
Mama Eatery,46 Mulberry Street NYC 10013,40.71502145,-73.99944705,3/9/15,"Food not protected from potential source of contamination during storage, preparation, transportation, display or service.",C
Mami Restaurant,1830 Amsterdam Ave NYC 10031,40.8288995,-73.9451559,10/27/15,Facility not vermin proof. Harborage or conditions conducive to attracting vermin to the premises and/or allowing vermin to exist.,C
Manhatanville Coffee,142 Edgecombe Ave NYC 10030,40.8213119,-73.9445609,5/15/15,"Non-food contact surface improperly constructed. Unacceptable material used. Non-food contact surface or equipment improperly maintained and/or not properly sealed, raised, spaced or movable to allow accessibility for cleaning on all sides, above and underneath the unit.",C
Manna'S Restaurant,54 East 125th Street NYC 10035,40.8054766,-73.9404227,11/2/15,Wiping cloths soiled or not stored in sanitizing solution.,C
Mansions Catering,4042 West 8th Street NYC 10011,40.732946,-73.9979869,12/16/15,Food Protection Certificate not held by supervisor of food operations.,C
Mars Cafe,58 West 39th Street NYC 10018,40.7524679,-73.98493635,9/4/15,Wiping cloths soiled or not stored in sanitizing solution.,C
Maru,11 W 32nd St NYC 10001,40.74769455,-73.98623946,9/30/15,Food Protection Certificate not held by supervisor of food operations.,C
Mcdonald'S,3549 Broadway NYC 10031,40.82674455,-73.95034718,7/9/15,Food Protection Certificate not held by supervisor of food operations.,C
Mee Noodle & Grill,922 2nd Avenue NYC 10017,40.7540835,-73.968892,10/2/15,Cold food item held above 41 degrees F (smoked fish and reduced oxygen packaged foods above 38 degrees F) except during necessary preparation.,C
Midtown Restaurant,155 East 55th Street NYC 10022,40.75945325,-73.96906285,12/4/15,Live roaches present in facility's food and/or non-food areas.,C
Mike'S Coffee Shop,44 East 32nd Street NYC 10016,40.7458638,-73.98291447,6/10/15,Evidence of mice or live mice present in facility's food and/or non-food areas.,C
Minca Ramen Factory,536 East 5th Street NYC 10009,40.72400225,-73.98296513,2/26/15,Live roaches present in facility's food and/or non-food areas.,C
Ming'S Delight,594 3rd Avenue NYC 10016,40.7487146,-73.976068,1/13/15,Evidence of mice or live mice present in facility's food and/or non-food areas.,C
Mini Express,1418 Elizabeth Street NYC 10013,40.720627,-73.9949689,6/26/15,"Raw, cooked or prepared food is adulterated, contaminated, cross-contaminated, or not discarded in accordance with HACCP plan.",C
Mission Ceviche,52 Gansevoort St NYC 10014,40.73920425,-74.00695926,8/28/15,Facility not vermin proof. Harborage or conditions conducive to attracting vermin to the premises and/or allowing vermin to exist.,C
Mooncake Foods,263 West 30th Street NYC 10001,40.74963675,-73.99464865,7/6/15,"Food not protected from potential source of contamination during storage, preparation, transportation, display or service.",C
Moonstruck (In Bellevue),462 1st Ave NYC 10016,40.73919815,-73.97532394,7/6/15,Facility not vermin proof. Harborage or conditions conducive to attracting vermin to the premises and/or allowing vermin to exist.,C
Muldoons Bar,692 3rd Avenue NYC 10017,40.75184864,-73.97378536,3/11/15,Wiping cloths soiled or not stored in sanitizing solution.,C
Mustang Cafe,22 West 38th Street NYC 10018,40.7513727,-73.9839474,3/6/15,Facility not vermin proof. Harborage or conditions conducive to attracting vermin to the premises and/or allowing vermin to exist.,C
Nanni Restaurant,146 East 46th Street NYC 10017,40.75357865,-73.97367972,3/19/15,Facility not vermin proof. Harborage or conditions conducive to attracting vermin to the premises and/or allowing vermin to exist.,C
New Good Taste Chinese Restaurant,3371 Broadway NYC 10031,40.8212404,-73.9545718,10/2/15,"Food not protected from potential source of contamination during storage, preparation, transportation, display or service.",C
Nino'S Restaurant,1354 1st Avenue NYC 10021,40.76813335,-73.9553657,11/16/15,Evidence of mice or live mice present in facility's food and/or non-food areas.,C
Noodies,830 9th Avenue NYC 10019,40.7663384,-73.9866498,8/6/15,Facility not vermin proof. Harborage or conditions conducive to attracting vermin to the premises and/or allowing vermin to exist.,C
Noodle Q,2 E Broadway NYC 10038,40.715236,-74.0054199,10/30/15,Facility not vermin proof. Harborage or conditions conducive to attracting vermin to the premises and/or allowing vermin to exist.,C
Notaro Restaurant,635 2nd Avenue NYC 10016,40.7453115,-73.975797,7/24/15,"Non-food contact surface improperly constructed. Unacceptable material used. Non-food contact surface or equipment improperly maintained and/or not properly sealed, raised, spaced or movable to allow accessibility for cleaning on all sides, above and underneath the unit.",C
Ooki Sushi,1575 3rd Avenue NYC 10128,40.7803007,-73.9525721,6/4/15,Facility not vermin proof. Harborage or conditions conducive to attracting vermin to the premises and/or allowing vermin to exist.,C
Ortiz Restaurant,2011 Amsterdam Ave NYC 10032,40.8343517,-73.94057011,9/30/15,Hand washing facility not provided in or near food preparation area and toilet room. Hot and cold running water at adequate pressure to enable cleanliness of employees not provided at facility. Soap and an acceptable hand-drying device not provided.,C
Paddy'S,3155 Broadway NYC 10027,40.8146807,-73.95943899,5/27/15,Evidence of mice or live mice present in facility's food and/or non-food areas.,C
Pakistan Tea House,176 Church St NYC 10013,40.7156064,-74.0076219,4/6/15,"Appropriately scaled metal stem-type thermometer or thermocouple not provided or used to evaluate temperatures of potentially hazardous foods during cooking, cooling, reheating and holding.",C
Pinche Taquiera,103 W 14th St NYC 10011,40.7376931,-73.9972167,2/17/15,Thawing procedures improper.,C
Pinocchio Ristorante,1748 1st Avenue NYC 10128,40.77966595,-73.9469871,7/10/15,Plumbing not properly installed or maintained; anti-siphonage or backflow prevention device not provided where required; equipment or floor not properly drained; sewage disposal system in disrepair or not functioning properly.,C
Pio Pio,604 10th Avenue NYC 10036,40.7605928,-73.9945434,6/8/15,Plumbing not properly installed or maintained; anti-siphonage or backflow prevention device not provided where required; equipment or floor not properly drained; sewage disposal system in disrepair or not functioning properly.,C
Pitopia,1369 Broadway NYC 10018,40.752157,-73.9877316,1/7/16,"Appropriately scaled metal stem-type thermometer or thermocouple not provided or used to evaluate temperatures of potentially hazardous foods during cooking, cooling, reheating and holding.",C
Pizza Plus,2253 3rd Ave NYC 10035,40.8018812,-73.936913,5/28/15,Facility not vermin proof. Harborage or conditions conducive to attracting vermin to the premises and/or allowing vermin to exist.,C
Pj Bernstein Deli & Restaurant,1215 3rd Avenue  NYC 10021,40.76859522,-73.96131878,8/27/15,"Non-food contact surface improperly constructed. Unacceptable material used. Non-food contact surface or equipment improperly maintained and/or not properly sealed, raised, spaced or movable to allow accessibility for cleaning on all sides, above and underneath the unit.",C
Prime Ko,217 West 85th Street NYC 10024,40.7875985,-73.9766091,10/14/15,Food Protection Certificate not held by supervisor of food operations.,C
Proto Pizza,50 2nd Ave NYC 10003,40.7253863,-73.9897976,4/22/15,Accurate thermometer not provided in refrigerated or hot holding equipment.,C
Radiance,208 East 50th Street NYC 10022,40.75562541,-73.97051133,12/14/15,"Single service item reused, improperly stored, dispensed; not used when required.",C
Ramen Co,100 Maiden Lane NYC 10038,40.70666035,-74.00716074,4/14/15,"Filth flies or food/refuse/sewage-associated (FRSA) flies present in facility's food and/or non-food areas. Filth flies include house flies, little house flies, blow flies, bottle flies and flesh flies. Food/refuse/sewage-associated flies include fruit flies, drain flies and Phorid flies.",C
Restaurant Patrick,40 W 45th Street NYC 10036,40.75592315,-73.98129512,4/9/15,Facility not vermin proof. Harborage or conditions conducive to attracting vermin to the premises and/or allowing vermin to exist.,C
Retro Grill & Bar (Holiday Inn),150 Delancey St NYC 10002,40.71826965,-73.98623338,12/22/15,"Food contact surface not properly washed, rinsed and sanitized after each use and following any activity when contamination may have occurred.",C
Ricardo Steak House,2145 2nd Avenue NYC 10029,40.7935145,-73.94065291,3/25/15,Hot food item not held at or above 140 degrees F.,C
Roastown,267 West 34th Street NYC 10001,40.75223525,-73.99293321,6/24/15,"Non-food contact surface improperly constructed. Unacceptable material used. Non-food contact surface or equipment improperly maintained and/or not properly sealed, raised, spaced or movable to allow accessibility for cleaning on all sides, above and underneath the unit.",C
Sagaponack,4 W 22nd St NYC 10010,40.74092605,-73.99078542,5/26/15,"Food not cooled by an approved method whereby the internal product temperature is reduced from 140 degrees F to 70 degrees F or less within 2 hours, and from 70 degrees F to 41 degrees  F or less within 4 additional hours.",C
Salud Soho,107 Thompson Street NYC 10012,40.72584405,-74.0021222,6/23/15,Hot food item that has been cooked and refrigerated is being held for service without first being reheated to 1 65Ô_ F or above within 2 hours.,C
Sharaku Japanese Restaurant,14 Stuyvesant Street  NYC 10003,40.7298041,-73.9890135,7/24/15,Thawing procedures improper.,C
Smiler'S Deli,532 Madison Avenue NYC 10022,40.7605268,-73.9738326,9/17/15,Hot food item not held at or above 140 degrees  F.,C
Sookk Thai Restaurant,2686 Broadway NYC 10025,40.79866015,-73.96833327,12/4/15,"Appropriately scaled metal stem-type thermometer or thermocouple not provided or used to evaluate temperatures of potentially hazardous foods during cooking, cooling, reheating and holding.",C
Space Gabi ( Pink By Ele),290 5th Ave NYC 10001,40.74634375,-73.98654626,12/30/15,"Raw, cooked or prepared food is adulterated, contaminated, cross-contaminated, or not discarded in accordance with HACCP plan.",C
Sprinkles Ice Cream,782 Lexington Ave NYC 10065,40.7634029,-73.9675042,8/28/15,Evidence of mice or live mice present in facility's food and/or non-food areas.,C
Star Lite Deli,212 West 44th Street NYC 10036,40.75752609,-73.98668082,9/3/15,Personal cleanliness inadequate. Outer garment soiled with possible contaminant. Effective hair restraint not worn in an area where food is prepared.,C
St Nicholas Food,285 Saint Nicholas Ave NYC 10027,40.8103533,-73.953117,1/13/15,"Non-food contact surface improperly constructed. Unacceptable material used. Non-food contact surface or equipment improperly maintained and/or not properly sealed, raised, spaced or movable to allow accessibility for cleaning on all sides, above and underneath the unit.",C
Subway,120 4th Avenue NYC 10003,40.7330872,-73.9901473,5/21/15,Facility not vermin proof. Harborage or conditions conducive to attracting vermin to the premises and/or allowing vermin to exist.,C
Sushi Dojo,110 1st Ave NYC 10009,40.7266377,-73.98566923,3/13/15,Facility not vermin proof. Harborage or conditions conducive to attracting vermin to the premises and/or allowing vermin to exist.,C
Sweetgreen ,1164 Broadway NYC 10001,40.7448222,-73.98863324,1/20/15,Cold food item held above 41 degrees F (smoked fish and reduced oxygen packaged foods above 38 degrees F) except during necessary preparation.,C
Szechuan Garden,239 W 105th St NYC 10025,40.8005482,-73.96754582,6/18/15,"Food not protected from potential source of contamination during storage, preparation, transportation, display or service.",C
Tamba Indian Grill & Bar,103 Lexington Avenue NYC 10016,40.74215055,-73.98252783,10/14/15,Facility not vermin proof. Harborage or conditions conducive to attracting vermin to the premises and/or allowing vermin to exist.,C
Tavern On The Third,380 3rd Avenue NYC 10016,40.74163333,-73.98122967,4/20/15,Cold food item held above 41 degrees  F (smoked fish and reduced oxygen packaged foods above 38 degrees F) except during necessary preparation.,C
The Bean,54 2nd Ave NYC 10003,40.7256096,-73.9896285,6/2/15,Cold food item held above 41 degrees  F (smoked fish and reduced oxygen packaged foods above 38 degrees F) except during necessary preparation.,C
The Bread Factory,935 8th Avenue NYC 10019,40.76575595,-73.98393,4/16/15,"Appropriately scaled metal stem-type thermometer or thermocouple not provided or used to evaluate temperatures of potentially hazardous foods during cooking, cooling, reheating and holding.",C
The Duck,2171 2nd Avenue NYC 10029,40.79424205,-73.94008065,2/12/15,Evidence of mice or live mice present in facility's food and/or non-food areas.,C
The Duplex,61 Christopher Street  NYC 10014,40.733744,-74.0024898,12/28/15,"Filth flies or food/refuse/sewage-associated (FRSA) flies present in facility's food and/or non-food areas. Filth flies include house flies, little house flies, blow flies, bottle flies and flesh flies. Food/refuse/sewage-associated flies include fruit flies, drain flies and Phorid flies.",C
The General,129 W 56th St NYC 10019,40.76443285,-73.97898192,3/3/15,"Food not protected from potential source of contamination during storage, preparation, transportation, display or service.",C
The Junction,329 Lexington Avenue NYC 10016,40.74927545,-73.9772971,5/28/15,"Non-food contact surface improperly constructed. Unacceptable material used. Non-food contact surface or equipment improperly maintained and/or not properly sealed, raised, spaced or movable to allow accessibility for cleaning on all sides, above and underneath the unit.",C
The Lexington Hotel New York,511 Lexington Avenue NYC 10017,40.7549725,-73.9731514,11/30/15,Evidence of mice or live mice present in facility's food and/or non-food areas.,C
The NYC At Times Square,790 7th Ave NYC 10019,40.7621059,-73.9827545,5/27/15,"Non-food contact surface improperly constructed. Unacceptable material used. Non-food contact surface or equipment improperly maintained and/or not properly sealed, raised, spaced or movable to allow accessibility for cleaning on all sides, above and underneath the unit.",C
The New York Palace Hotel,455 Madison Ave NYC 10022,40.75798035,-73.9747689,1/5/15,"Raw, cooked or prepared food is adulterated, contaminated, cross-contaminated, or not discarded in accordance with HACCP plan.",C
The Standard East Village,25 Cooper Square NYC 10003,40.7278238,-73.9908953,5/30/15,"Filth flies or food/refuse/sewage-associated (FRSA) flies present in facility's food and/or non-food areas. Filth flies include house flies, little house flies, blow flies, bottle flies and flesh flies. Food/refuse/sewage-associated flies include fruit flies, drain flies and Phorid flies.",C
Third Avenue Ale House,1644 3rd Avenue NYC 10128,40.7828031,-73.9512877,6/1/15,"Raw, cooked or prepared food is adulterated, contaminated, cross-contaminated, or not discarded in accordance with HACCP plan.",C
Third Rail Coffee,159 2nd Avenue NYC 10003,40.7297495,-73.9870609,6/5/15,"''Wash hands"" sign not posted at hand wash facility.",C
Tkettle,26 Saint Marks Place NYC 10003,40.72881485,-73.98869531,9/4/15,"Sanitized equipment or utensil, including in-use food dispensing utensil, improperly used or stored.",C
Tous Les Jours,7 Division St NYC 10002,40.71389515,-73.99706895,7/13/15,Facility not vermin proof. Harborage or conditions conducive to attracting vermin to the premises and/or allowing vermin to exist.,C
Tout Va Bien,311 West 51st street NYC 10019,40.7634534,-73.98617325,3/23/15,"Filth flies or food/refuse/sewage-associated (FRSA) flies present in facility's food and/or non-food areas. Filth flies include house flies, little house flies, blow flies, bottle flies and flesh flies. Food/refuse/sewage-associated flies include fruit flies, drain flies and Phorid flies.",C
Tropical Sensation,953 Amsterdam Avenue NYC 10025,40.8008278,-73.96504124,5/8/15,"Non-food contact surface improperly constructed. Unacceptable material used. Non-food contact surface or equipment improperly maintained and/or not properly sealed, raised, spaced or movable to allow accessibility for cleaning on all sides, above and underneath the unit.",C
Tue Thai Food,3 Greenwich Avenue NYC 10014,40.7338722,-73.9997968,4/20/15,Hot food item not held at or above 140 degrees F.,C
Tu Sabor Latino,3864 Broadway NYC 10032,40.8366451,-73.9426706,6/3/15,Cold food item held above 41 degrees F (smoked fish and reduced oxygen packaged foods above 38 degrees F) except during necessary preparation.,C
Uncle Vanya,315 West 54th Street NYC 10019,40.7653703,-73.98509577,4/7/15,Cold food item held above 41 degrees F (smoked fish and reduced oxygen packaged foods above 38 degrees F) except during necessary preparation.,C
Uptown Juice & Veg,52 E 125th St NYC 10035,40.8055163,-73.9405432,12/28/15,"Non-food contact surface improperly constructed. Unacceptable material used. Non-food contact surface or equipment improperly maintained and/or not properly sealed, raised, spaced or movable to allow accessibility for cleaning on all sides, above and underneath the unit.",C
Valbella N.Y.,421 West 13th Street NYC 10014,40.740862,-74.0070305,12/28/15,Personal cleanliness inadequate. Outer garment soiled with possible contaminant. Effective hair restraint not worn in an area where food is prepared.,C
Via Italia Ristorante,45 West 46th Street NYC 10036,40.7569823,-73.98068613,8/6/15,"Filth flies or food/refuse/sewage-associated (FRSA) flies present in facility's food and/or non-food areas. Filth flies include house flies, little house flies, blow flies, bottle flies and flesh flies. Food/refuse/sewage-associated flies include fruit flies, drain flies and Phorid flies.",C
''W'' Cafe,390 5th Ave NYC 10018,40.7498065,-73.9840784,11/24/15,"Filth flies or food/refuse/sewage-associated (FRSA) flies present in facility's food and/or non-food areas. Filth flies include house flies, little house flies, blow flies, bottle flies and flesh flies. Food/refuse/sewage-associated flies include fruit flies, drain flies and Phorid flies.",C
Wholesome Garden Pizza,3529 Broadway NYC 10031,40.8261459,-73.9509793,11/6/15,"Food not protected from potential source of contamination during storage, preparation, transportation, display or service.",C
Wild Ginger,226 East 51st street NYC 10022,40.7558206,-73.96929994,6/4/15,Evidence of mice or live mice present in facility's food and/or non-food areas.,C
Wing Wah,2308 1st Avenue NYC 10035,40.79748595,-73.93399392,6/12/15,Wiping cloths soiled or not stored in sanitizing solution.,C
Woops! Bakeshop,93 Worth St NYC 10013,40.7165612,-74.0048984,2/9/15,Evidence of mice or live mice present in facility's food and/or non-food areas.,C
World Cup Cafe,956 Lexington Avenue NYC 10021,40.7689352,-73.9634619,3/28/15,"Raw, cooked or prepared food is adulterated, contaminated, cross-contaminated, or not discarded in accordance with HACCP plan.",C
Xing Wong Bbq,89 E Broadway NYC 10002,40.7417946,-73.9889862,1/29/15,Hot food item not held at or above 140 degrees F.,C
Yankee'S Sk Pizza,2166 3rd Avenue NYC 10035,40.799518,-73.9390916,5/14/15,Hand washing facility not provided in or near food preparation area and toilet room. Hot and cold running water at adequate pressure to enable cleanliness of employees not provided at facility. Soap and an acceptable hand-drying device not provided.,C
Yee Li Restaurant,1 Elizabeth Street NYC 10013,40.7154802,-73.997758,10/28/15,Hot food item not held at or above 140 degrees F.,C
Yi Zhang Fishball & Snacks Restaurant,41 Monroe St NYC 10002,40.7116645,-73.9945214,10/22/15,"Non-food contact surface improperly constructed. Unacceptable material used. Non-food contact surface or equipment improperly maintained and/or not properly sealed, raised, spaced or movable to allow accessibility for cleaning on all sides, above and underneath the unit.",C
Yum Yum Bangkok,650 9th Ave NYC 10036,40.76060915,-73.99076794,10/16/15,"Non-food contact surface improperly constructed. Unacceptable material used. Non-food contact surface or equipment improperly maintained and/or not properly sealed, raised, spaced or movable to allow accessibility for cleaning on all sides, above and underneath the unit.",C
Zabb Elee,75 2nd Avenue NYC 10003,40.72656865,-73.98947845,4/28/15,Duties of an officer of the Department interfered with or obstructed.,C
Zen Palate,516 3rd Ave NYC 10016,40.74613114,-73.97794957,3/9/15,"Non-food contact surface improperly constructed. Unacceptable material used. Non-food contact surface or equipment improperly maintained and/or not properly sealed, raised, spaced or movable to allow accessibility for cleaning on all sides, above and underneath the unit.",C